STARLINK-35920          
1 66623U 25271G   25344.58336806 -.01983137  00000+0 -28112-1 0  9995
2 66623  53.1605 197.5940 0001175 117.8022 149.2582 15.59338939  3891
STARLINK-35927          
1 66624U 25271H   25344.58336806 -.01980791  00000+0 -28078-1 0  9990
2 66624  53.1604 197.5989 0001020 118.3830 146.7606 15.59337349  3899
STARLINK-35929          
1 66625U 25271J   25344.58336806 -.01982067  00000+0 -28096-1 0  9999
2 66625  53.1603 197.5899 0001208 122.4412 146.5363 15.59337783  3899
STARLINK-35902          
1 66626U 25271K   25344.58336806 -.01975555  00000+0 -27995-1 0  9991
2 66626  53.1602 197.5862 0001046 121.4010 149.4912 15.59335383  3898
STARLINK-35904          
1 66627U 25271L   25344.58336806 -.01975229  00000+0 -27990-1 0  9995
2 66627  53.1602 197.5820 0001064 117.1188 155.6918 15.59334792  3732
STARLINK-35862          
1 66628U 25271M   25344.58336806 -.01974990  00000+0 -27986-1 0  9995
2 66628  53.1602 197.5783 0001137 123.1327 151.5939 15.59334665  3898
STARLINK-35956          
1 66629U 25271N   25344.58336806 -.01976775  00000+0 -28013-1 0  9991
2 66629  53.1602 197.5745 0001156 124.1077 152.5352 15.59335965  3895
STARLINK-35949          
1 66630U 25271P   25344.58336806 -.01984836  00000+0 -28141-1 0  9992
2 66630  53.1601 197.5693 0001027 122.5971 155.9640 15.59339511  3898
STARLINK-35965          
1 66631U 25271Q   25344.58336806 -.01968713  00000+0 -27891-1 0  9990
2 66631  53.1601 197.5662 0000938 107.9045 172.5737 15.59330946  3899
STARLINK-35973          
1 66632U 25271R   25344.58336806 -.01981706  00000+0 -28091-1 0  9991
2 66632  53.1602 197.5623 0001119 120.8053 161.5901 15.59337924  3831
STARLINK-35948          
1 66633U 25271S   25344.58336806 -.01983090  00000+0 -28113-1 0  9995
2 66633  53.1605 197.5571 0001075 117.3306 166.9818 15.59338785  3898
STARLINK-35967          
1 66634U 25271T   25344.58336806 -.01985462  00000+0 -28149-1 0  9990
2 66634  53.1604 197.5529 0001138 120.0579 166.1696 15.59340761  3820
