CCSDS_OMM_VERS = 2.0
CREATION_DATE  = 
ORIGINATOR     = 

OBJECT_NAME    = STARLINK-35920
OBJECT_ID      = 2025-271G
CENTER_NAME    = EARTH
REF_FRAME      = TEME
TIME_SYSTEM    = UTC
MEAN_ELEMENT_THEORY = SGP/SGP4

EPOCH          = 2025-12-10T14:00:03.000384
MEAN_MOTION    = 15.59338939
ECCENTRICITY   = .00011753
INCLINATION    = 53.1605
RA_OF_ASC_NODE = 197.5940
ARG_OF_PERICENTER = 117.8022
MEAN_ANOMALY   = 149.2582

EPHEMERIS_TYPE = 0
CLASSIFICATION_TYPE = U
NORAD_CAT_ID   = 66623
ELEMENT_SET_NO = 999
REV_AT_EPOCH   = 389
BSTAR          = -.28112494E-1
MEAN_MOTION_DOT = -.1983137E-1
MEAN_MOTION_DDOT = 0

CCSDS_OMM_VERS = 2.0
CREATION_DATE  = 
ORIGINATOR     = 

OBJECT_NAME    = STARLINK-35927
OBJECT_ID      = 2025-271H
CENTER_NAME    = EARTH
REF_FRAME      = TEME
TIME_SYSTEM    = UTC
MEAN_ELEMENT_THEORY = SGP/SGP4

EPOCH          = 2025-12-10T14:00:03.000384
MEAN_MOTION    = 15.59337349
ECCENTRICITY   = .00010206
INCLINATION    = 53.1604
RA_OF_ASC_NODE = 197.5989
ARG_OF_PERICENTER = 118.3830
MEAN_ANOMALY   = 146.7606

EPHEMERIS_TYPE = 0
CLASSIFICATION_TYPE = U
NORAD_CAT_ID   = 66624
ELEMENT_SET_NO = 999
REV_AT_EPOCH   = 389
BSTAR          = -.28078006E-1
MEAN_MOTION_DOT = -.1980791E-1
MEAN_MOTION_DDOT = 0

CCSDS_OMM_VERS = 2.0
CREATION_DATE  = 
ORIGINATOR     = 

OBJECT_NAME    = STARLINK-35929
OBJECT_ID      = 2025-271J
CENTER_NAME    = EARTH
REF_FRAME      = TEME
TIME_SYSTEM    = UTC
MEAN_ELEMENT_THEORY = SGP/SGP4

EPOCH          = 2025-12-10T14:00:03.000384
MEAN_MOTION    = 15.59337783
ECCENTRICITY   = .00012089
INCLINATION    = 53.1603
RA_OF_ASC_NODE = 197.5899
ARG_OF_PERICENTER = 122.4412
MEAN_ANOMALY   = 146.5363

EPHEMERIS_TYPE = 0
CLASSIFICATION_TYPE = U
NORAD_CAT_ID   = 66625
ELEMENT_SET_NO = 999
REV_AT_EPOCH   = 389
BSTAR          = -.28096058E-1
MEAN_MOTION_DOT = -.1982067E-1
MEAN_MOTION_DDOT = 0

CCSDS_OMM_VERS = 2.0
CREATION_DATE  = 
ORIGINATOR     = 

OBJECT_NAME    = STARLINK-35902
OBJECT_ID      = 2025-271K
CENTER_NAME    = EARTH
REF_FRAME      = TEME
TIME_SYSTEM    = UTC
MEAN_ELEMENT_THEORY = SGP/SGP4

EPOCH          = 2025-12-10T14:00:03.000384
MEAN_MOTION    = 15.59335383
ECCENTRICITY   = .00010462
INCLINATION    = 53.1602
RA_OF_ASC_NODE = 197.5862
ARG_OF_PERICENTER = 121.4010
MEAN_ANOMALY   = 149.4912

EPHEMERIS_TYPE = 0
CLASSIFICATION_TYPE = U
NORAD_CAT_ID   = 66626
ELEMENT_SET_NO = 999
REV_AT_EPOCH   = 389
BSTAR          = -.27995237E-1
MEAN_MOTION_DOT = -.1975555E-1
MEAN_MOTION_DDOT = 0

CCSDS_OMM_VERS = 2.0
CREATION_DATE  = 
ORIGINATOR     = 

OBJECT_NAME    = STARLINK-35904
OBJECT_ID      = 2025-271L
CENTER_NAME    = EARTH
REF_FRAME      = TEME
TIME_SYSTEM    = UTC
MEAN_ELEMENT_THEORY = SGP/SGP4

EPOCH          = 2025-12-10T14:00:03.000384
MEAN_MOTION    = 15.59334792
ECCENTRICITY   = .00010641
INCLINATION    = 53.1602
RA_OF_ASC_NODE = 197.5820
ARG_OF_PERICENTER = 117.1188
MEAN_ANOMALY   = 155.6918

EPHEMERIS_TYPE = 0
CLASSIFICATION_TYPE = U
NORAD_CAT_ID   = 66627
ELEMENT_SET_NO = 999
REV_AT_EPOCH   = 373
BSTAR          = -.27990422E-1
MEAN_MOTION_DOT = -.1975229E-1
MEAN_MOTION_DDOT = 0

CCSDS_OMM_VERS = 2.0
CREATION_DATE  = 
ORIGINATOR     = 

OBJECT_NAME    = STARLINK-35862
OBJECT_ID      = 2025-271M
CENTER_NAME    = EARTH
REF_FRAME      = TEME
TIME_SYSTEM    = UTC
MEAN_ELEMENT_THEORY = SGP/SGP4

EPOCH          = 2025-12-10T14:00:03.000384
MEAN_MOTION    = 15.59334665
ECCENTRICITY   = .00011379
INCLINATION    = 53.1602
RA_OF_ASC_NODE = 197.5783
ARG_OF_PERICENTER = 123.1327
MEAN_ANOMALY   = 151.5939

EPHEMERIS_TYPE = 0
CLASSIFICATION_TYPE = U
NORAD_CAT_ID   = 66628
ELEMENT_SET_NO = 999
REV_AT_EPOCH   = 389
BSTAR          = -.27985872E-1
MEAN_MOTION_DOT = -.197499E-1
MEAN_MOTION_DDOT = 0

CCSDS_OMM_VERS = 2.0
CREATION_DATE  = 
ORIGINATOR     = 

OBJECT_NAME    = STARLINK-35956
OBJECT_ID      = 2025-271N
CENTER_NAME    = EARTH
REF_FRAME      = TEME
TIME_SYSTEM    = UTC
MEAN_ELEMENT_THEORY = SGP/SGP4

EPOCH          = 2025-12-10T14:00:03.000384
MEAN_MOTION    = 15.59335965
ECCENTRICITY   = .00011561
INCLINATION    = 53.1602
RA_OF_ASC_NODE = 197.5745
ARG_OF_PERICENTER = 124.1077
MEAN_ANOMALY   = 152.5352

EPHEMERIS_TYPE = 0
CLASSIFICATION_TYPE = U
NORAD_CAT_ID   = 66629
ELEMENT_SET_NO = 999
REV_AT_EPOCH   = 389
BSTAR          = -.28013094E-1
MEAN_MOTION_DOT = -.1976775E-1
MEAN_MOTION_DDOT = 0

CCSDS_OMM_VERS = 2.0
CREATION_DATE  = 
ORIGINATOR     = 

OBJECT_NAME    = STARLINK-35949
OBJECT_ID      = 2025-271P
CENTER_NAME    = EARTH
REF_FRAME      = TEME
TIME_SYSTEM    = UTC
MEAN_ELEMENT_THEORY = SGP/SGP4

EPOCH          = 2025-12-10T14:00:03.000384
MEAN_MOTION    = 15.59339511
ECCENTRICITY   = .0001027
INCLINATION    = 53.1601
RA_OF_ASC_NODE = 197.5693
ARG_OF_PERICENTER = 122.5971
MEAN_ANOMALY   = 155.9640

EPHEMERIS_TYPE = 0
CLASSIFICATION_TYPE = U
NORAD_CAT_ID   = 66630
ELEMENT_SET_NO = 999
REV_AT_EPOCH   = 389
BSTAR          = -.28140995E-1
MEAN_MOTION_DOT = -.1984836E-1
MEAN_MOTION_DDOT = 0

CCSDS_OMM_VERS = 2.0
CREATION_DATE  = 
ORIGINATOR     = 

OBJECT_NAME    = STARLINK-35965
OBJECT_ID      = 2025-271Q
CENTER_NAME    = EARTH
REF_FRAME      = TEME
TIME_SYSTEM    = UTC
MEAN_ELEMENT_THEORY = SGP/SGP4

EPOCH          = 2025-12-10T14:00:03.000384
MEAN_MOTION    = 15.59330946
ECCENTRICITY   = .00009387
INCLINATION    = 53.1601
RA_OF_ASC_NODE = 197.5662
ARG_OF_PERICENTER = 107.9045
MEAN_ANOMALY   = 172.5737

EPHEMERIS_TYPE = 0
CLASSIFICATION_TYPE = U
NORAD_CAT_ID   = 66631
ELEMENT_SET_NO = 999
REV_AT_EPOCH   = 389
BSTAR          = -.27890723E-1
MEAN_MOTION_DOT = -.1968713E-1
MEAN_MOTION_DDOT = 0

CCSDS_OMM_VERS = 2.0
CREATION_DATE  = 
ORIGINATOR     = 

OBJECT_NAME    = STARLINK-35973
OBJECT_ID      = 2025-271R
CENTER_NAME    = EARTH
REF_FRAME      = TEME
TIME_SYSTEM    = UTC
MEAN_ELEMENT_THEORY = SGP/SGP4

EPOCH          = 2025-12-10T14:00:03.000384
MEAN_MOTION    = 15.59337924
ECCENTRICITY   = .00011194
INCLINATION    = 53.1602
RA_OF_ASC_NODE = 197.5623
ARG_OF_PERICENTER = 120.8053
MEAN_ANOMALY   = 161.5901

EPHEMERIS_TYPE = 0
CLASSIFICATION_TYPE = U
NORAD_CAT_ID   = 66632
ELEMENT_SET_NO = 999
REV_AT_EPOCH   = 383
BSTAR          = -.2809108E-1
MEAN_MOTION_DOT = -.1981706E-1
MEAN_MOTION_DDOT = 0

CCSDS_OMM_VERS = 2.0
CREATION_DATE  = 
ORIGINATOR     = 

OBJECT_NAME    = STARLINK-35948
OBJECT_ID      = 2025-271S
CENTER_NAME    = EARTH
REF_FRAME      = TEME
TIME_SYSTEM    = UTC
MEAN_ELEMENT_THEORY = SGP/SGP4

EPOCH          = 2025-12-10T14:00:03.000384
MEAN_MOTION    = 15.59338785
ECCENTRICITY   = .00010755
INCLINATION    = 53.1605
RA_OF_ASC_NODE = 197.5571
ARG_OF_PERICENTER = 117.3306
MEAN_ANOMALY   = 166.9818

EPHEMERIS_TYPE = 0
CLASSIFICATION_TYPE = U
NORAD_CAT_ID   = 66633
ELEMENT_SET_NO = 999
REV_AT_EPOCH   = 389
BSTAR          = -.28113012E-1
MEAN_MOTION_DOT = -.198309E-1
MEAN_MOTION_DDOT = 0

CCSDS_OMM_VERS = 2.0
CREATION_DATE  = 
ORIGINATOR     = 

OBJECT_NAME    = STARLINK-35967
OBJECT_ID      = 2025-271T
CENTER_NAME    = EARTH
REF_FRAME      = TEME
TIME_SYSTEM    = UTC
MEAN_ELEMENT_THEORY = SGP/SGP4

EPOCH          = 2025-12-10T14:00:03.000384
MEAN_MOTION    = 15.59340761
ECCENTRICITY   = .00011384
INCLINATION    = 53.1604
RA_OF_ASC_NODE = 197.5529
ARG_OF_PERICENTER = 120.0579
MEAN_ANOMALY   = 166.1696

EPHEMERIS_TYPE = 0
CLASSIFICATION_TYPE = U
NORAD_CAT_ID   = 66634
ELEMENT_SET_NO = 999
REV_AT_EPOCH   = 382
BSTAR          = -.28148523E-1
MEAN_MOTION_DOT = -.1985462E-1
MEAN_MOTION_DDOT = 0

